     2              NAVIGATION DATA                         RINEX VERSION / TYPE
CCRINEXN V1.3.6 VM  CDDIS               16-OCT-95 11:22     PGM / RUN BY / DATE 
IGS BROADCAST EPHEMERIS FILE                                COMMENT             
                                                            END OF HEADER       
28 95 10 15  8  0  0.0 0.418606214225D-04 0.216004991671D-11 0.000000000000D+00
    0.240000000000D+02-0.909375000000D+01 0.446697178159D-08-0.871622332626D-01
   -0.368803739548D-06 0.368249660823D-02 0.409223139286D-05 0.515370140648D+04
    0.288000000000D+05 0.111758708954D-07-0.428465396744D+00-0.540167093277D-07
    0.972521297896D+00 0.305062500000D+03 0.307238550880D+01-0.824248618978D-08
    0.364300888880D-10 0.100000000000D+01 0.823000000000D+03 0.000000000000D+00
    0.400000000000D+01 0.000000000000D+00 0.139698386192D-08 0.280000000000D+03
    0.216000000000D+05 0.000000000000D+00 0.000000000000D+00 0.000000000000D+00
17 95 10 15  8  0  0.0-0.952710397542D-04-0.102318153949D-11 0.000000000000D+00
    0.171000000000D+03-0.606562500000D+02 0.414052961254D-08 0.109023034029D+01
   -0.346079468727D-05 0.847075984348D-02 0.761076807976D-05 0.515368528366D+04
    0.288000000000D+05 0.100582838058D-06 0.698003645076D+00-0.141561031342D-06
    0.974584676552D+00 0.238656250000D+03 0.219177286871D+01-0.790782939284D-08
   -0.435732435719D-10 0.100000000000D+01 0.823000000000D+03 0.000000000000D+00
    0.320000000000D+02 0.000000000000D+00 0.139698386192D-08 0.427000000000D+03
    0.216300000000D+05 0.000000000000D+00 0.000000000000D+00 0.000000000000D+00
15 95 10 15  8  0  0.0 0.232730526477D-03 0.352429196937D-11 0.000000000000D+00
    0.111000000000D+03-0.681562500000D+02 0.425660587615D-08-0.672779445404D+00
   -0.353716313839D-05 0.693847378716D-02 0.817328691483D-05 0.515372974586D+04
    0.288000000000D+05-0.596046447754D-07 0.662413815006D+00 0.111758708954D-07
    0.973522224983D+00 0.227968750000D+03 0.174275139268D+01-0.807676500111D-08
    0.642883921553D-11 0.100000000000D+01 0.823000000000D+03 0.000000000000D+00
    0.400000000000D+01 0.000000000000D+00 0.279396772385D-08 0.111000000000D+03
    0.238800000000D+05 0.000000000000D+00 0.000000000000D+00 0.000000000000D+00
 1 95 10 15  8  0  0.0 0.608386006206D-03-0.159161572810D-11 0.000000000000D+00
    0.155000000000D+03-0.143750000000D+01 0.477162732886D-08 0.199392247924D+01
   -0.298023223877D-07 0.333612924442D-02 0.686571002007D-05 0.515370164490D+04
    0.288000000000D+05 0.577419996262D-07 0.273260623636D+01-0.204890966415D-07
    0.954549396105D+00 0.241593750000D+03-0.135502278436D+01-0.807605068564D-08
   -0.535736601294D-10 0.100000000000D+01 0.823000000000D+03 0.000000000000D+00
    0.320000000000D+02 0.000000000000D+00 0.139698386192D-08 0.411000000000D+03
    0.242700000000D+05 0.000000000000D+00 0.000000000000D+00 0.000000000000D+00
 2 95 10 15  6 51 44.0-0.200323760509D-03-0.284217094304D-11 0.000000000000D+00
    0.490000000000D+02 0.638125000000D+02 0.467626621383D-08-0.254929195245D+01
    0.312924385071D-05 0.148584677372D-01 0.702776014805D-05 0.515368163109D+04
    0.247040000000D+05 0.132247805595D-06-0.150911078555D+01-0.137835741043D-06
    0.948516125915D+00 0.235250000000D+03-0.250269330103D+01-0.807247910830D-08
    0.220366321999D-09 0.100000000000D+01 0.823000000000D+03 0.000000000000D+00
    0.320000000000D+02 0.000000000000D+00 0.931322574615D-09 0.490000000000D+02
    0.286800000000D+05 0.000000000000D+00 0.000000000000D+00 0.000000000000D+00
31 95 10 15 10  0  0.0 0.649805180728D-03 0.321733750752D-10 0.000000000000D+00
    0.103000000000D+03-0.103125000000D+02 0.458769109575D-08 0.278204061550D+01
   -0.506639480591D-06 0.589414313436D-02 0.433996319771D-05 0.515362504387D+04
    0.360000000000D+05-0.149011611938D-07-0.437065602474D+00-0.113621354103D-06
    0.963785925850D+00 0.298125000000D+03 0.663159438018D+00-0.814855370568D-08
    0.321441960776D-10 0.100000000000D+01 0.823000000000D+03 0.000000000000D+00
    0.320000000000D+02 0.000000000000D+00 0.139698386192D-08 0.359000000000D+03
    0.288000000000D+05 0.000000000000D+00 0.000000000000D+00 0.000000000000D+00
21 95 10 15 10  0  0.0-0.537512823939D-05-0.568434188608D-12 0.000000000000D+00
    0.129000000000D+03-0.183437500000D+02 0.468483799945D-08-0.328221175089D+00
   -0.111572444439D-05 0.121898862999D-01 0.829249620438D-05 0.515365311432D+04
    0.360000000000D+05 0.229105353355D-06 0.166730862102D+01-0.894069671631D-07
    0.957367665360D+00 0.219468750000D+03 0.304469522277D+01-0.819176979152D-08
    0.132505519387D-09 0.100000000000D+01 0.823000000000D+03 0.000000000000D+00
    0.320000000000D+02 0.000000000000D+00 0.605359673500D-08 0.385000000000D+03
    0.288000000000D+05 0.000000000000D+00 0.000000000000D+00 0.000000000000D+00
 1 95 10 15 10  0  0.0 0.608374830335D-03-0.159161572810D-11 0.000000000000D+00
    0.156000000000D+03 0.290625000000D+01 0.479269963518D-08 0.304394393241D+01
    0.301748514175D-06 0.333553331438D-02 0.719539821148D-05 0.515370308685D+04
    0.360000000000D+05 0.484287738800D-07 0.273254812048D+01 0.745058059692D-08
    0.954549005506D+00 0.238343750000D+03-0.135487905558D+01-0.806962184643D-08
   -0.485734518507D-10 0.100000000000D+01 0.823000000000D+03 0.000000000000D+00
    0.320000000000D+02 0.000000000000D+00 0.139698386192D-08 0.412000000000D+03
    0.288000000000D+05 0.000000000000D+00 0.000000000000D+00 0.000000000000D+00
 2 95 10 15 10  0  0.0-0.200356356800D-03-0.284217094304D-11 0.000000000000D+00
    0.500000000000D+02 0.724062500000D+02 0.478769942690D-08-0.901764009999D+00
    0.388734042644D-05 0.148585586576D-01 0.681914389133D-05 0.515367929268D+04
    0.360000000000D+05 0.311061739922D-06-0.150920143234D+01 0.175088644028D-06
    0.948517148495D+00 0.239531250000D+03-0.250260933392D+01-0.833677583160D-08
    0.400016662300D-10 0.100000000000D+01 0.823000000000D+03 0.000000000000D+00
    0.320000000000D+02 0.000000000000D+00 0.931322574615D-09 0.500000000000D+02
    0.288000000000D+05 0.000000000000D+00 0.000000000000D+00 0.000000000000D+00
28 95 10 15  8 51 44.0 0.418499112129D-04 0.204636307899D-11 0.000000000000D+00
    0.500000000000D+02-0.793750000000D+01 0.437196782429D-08 0.365553314260D+00
   -0.417232513428D-06 0.368205341510D-02 0.443868339062D-05 0.515370074272D+04
    0.319040000000D+05 0.614672899246D-07-0.428490765206D+00 0.745058059692D-07
    0.972521921099D+00 0.300500000000D+03 0.307240729165D+01-0.812390982202D-08
   -0.392873507616D-11 0.100000000000D+01 0.823000000000D+03 0.000000000000D+00
    0.300000000000D+01 0.000000000000D+00 0.139698386192D-08 0.500000000000D+02
    0.288000000000D+05 0.000000000000D+00 0.000000000000D+00 0.000000000000D+00
15 95 10 15 10  0  0.0 0.232756137848D-03 0.352429196937D-11 0.000000000000D+00
    0.112000000000D+03-0.620625000000D+02 0.428374986395D-08 0.377399327054D+00
   -0.326707959175D-05 0.693741929717D-02 0.781379640102D-05 0.515372781944D+04
    0.360000000000D+05-0.651925802231D-07 0.662355672790D+00 0.186264514923D-08
    0.973522257167D+00 0.234781250000D+03 0.174271752759D+01-0.807497921244D-08
    0.392873507616D-11 0.100000000000D+01 0.823000000000D+03 0.000000000000D+00
    0.400000000000D+01 0.000000000000D+00 0.279396772385D-08 0.112000000000D+03
    0.288300000000D+05 0.000000000000D+00 0.000000000000D+00 0.000000000000D+00
14 95 10 15 10  0  0.0 0.112610869110D-04 0.113686837722D-12 0.000000000000D+00
    0.730000000000D+02-0.105312500000D+02 0.452447417680D-08-0.217326959411D+01
   -0.638887286186D-06 0.242836517282D-02 0.873580574989D-05 0.515371820259D+04
    0.360000000000D+05-0.391155481339D-07 0.170023429587D+01-0.745058059692D-08
    0.963611758138D+00 0.211906250000D+03 0.305504392867D+01-0.796283168390D-08
    0.257867884090D-09 0.100000000000D+01 0.823000000000D+03 0.000000000000D+00
    0.320000000000D+02 0.000000000000D+00 0.139698386192D-08 0.730000000000D+02
    0.299700000000D+05 0.000000000000D+00 0.000000000000D+00 0.000000000000D+00
 7 95 10 15  8 51 44.0 0.709785148501D-03 0.454747350886D-12 0.000000000000D+00
    0.360000000000D+02-0.900000000000D+01 0.456697594717D-08-0.265055094186D+01
   -0.447034835815D-06 0.765050551854D-02 0.404566526413D-05 0.515371169281D+04
    0.319040000000D+05 0.484287738800D-07-0.439596345421D+00-0.875443220139D-07
    0.964373897495D+00 0.302875000000D+03-0.251139265457D+01-0.820034157714D-08
    0.101075638777D-09 0.100000000000D+01 0.823000000000D+03 0.000000000000D+00
    0.320000000000D+02 0.000000000000D+00 0.139698386192D-08 0.360000000000D+02
    0.336000000000D+05 0.000000000000D+00 0.000000000000D+00 0.000000000000D+00
25 95 10 15 10  0  0.0 0.795349478722D-06-0.113686837722D-12 0.000000000000D+00
    0.210000000000D+02 0.220000000000D+02 0.482734393539D-08-0.287149356489D+01
    0.115670263767D-05 0.589475780725D-02 0.837631523609D-05 0.515364092827D+04
    0.360000000000D+05-0.128522515297D-06-0.255262166372D+01-0.558793544769D-08
    0.940629326816D+00 0.205375000000D+03-0.305054552433D+01-0.811105214359D-08
   -0.212508851847D-09 0.100000000000D+01 0.823000000000D+03 0.000000000000D+00
    0.320000000000D+02 0.000000000000D+00-0.232830643654D-08 0.277000000000D+03
    0.354300000000D+05 0.000000000000D+00 0.000000000000D+00 0.000000000000D+00
29 95 10 15 10  0  0.0 0.180024653673D-05 0.454747350886D-12 0.000000000000D+00
    0.147000000000D+03-0.221875000000D+01 0.493663420206D-08 0.166470766093D+01
   -0.223517417908D-06 0.490782316774D-02 0.710412859917D-05 0.515361652374D+04
    0.360000000000D+05-0.651925802231D-07 0.268899298673D+01-0.100582838058D-06
    0.953632436127D+00 0.239812500000D+03-0.186309744732D+01-0.817498337801D-08
   -0.489306095849D-10 0.100000000000D+01 0.823000000000D+03 0.000000000000D+00
    0.320000000000D+02 0.000000000000D+00-0.931322574615D-09 0.147000000000D+03
    0.359700000000D+05 0.000000000000D+00 0.000000000000D+00 0.000000000000D+00
